OBJECT_NAME,OBJECT_ID,EPOCH,MEAN_MOTION,ECCENTRICITY,INCLINATION,RA_OF_ASC_NODE,ARG_OF_PERICENTER,MEAN_ANOMALY,EPHEMERIS_TYPE,CLASSIFICATION_TYPE,NORAD_CAT_ID,ELEMENT_SET_NO,REV_AT_EPOCH,BSTAR,MEAN_MOTION_DOT,MEAN_MOTION_DDOT
AMAZONAS 4A,2014-011A,2026-05-29T01:30:09.014112,1.00272122,.0003562,0.0598,148.3140,303.1196,103.7155,0,U,39616,999,4452,0,-.242E-5,0
ASTRA 5B,2014-011B,2026-05-29T01:57:51.109056,1.00272814,.0002524,0.0495,327.7786,74.7076,257.0746,0,U,39617,999,4447,0,.147E-5,0
COSMOS 2492 [GLONASS-M],2014-012A,2026-05-27T05:18:56.291904,2.13103147,.0010712,65.3097,314.6476,328.3067,31.6216,0,U,39620,999,9479,0,-.62E-6,0
SJ-11-06,2014-014A,2026-05-29T04:58:40.446912,14.61832028,.0015032,97.9490,176.6896,49.8000,310.4515,0,U,39624,999,64792,.1288E-3,.599E-5,0
SENTINEL-1A,2014-016A,2026-05-29T04:01:12.495936,14.59199605,.0001391,98.1780,156.9776,85.2996,274.8363,0,U,39634,999,64724,.29348E-4,.93E-6,0
IRNSS-1B,2014-017A,2026-05-19T20:39:38.653920,1.00280229,.00242269,28.9733,240.8911,185.2284,176.5740,0,U,39635,999,4451,0,.103E-5,0
LUCH-5V,2014-023A,2026-05-28T22:47:21.747264,1.00271423,.0002569,5.0878,69.9430,18.6709,234.4822,0,U,39727,999,4416,0,-.261E-5,0
KAZSAT-3,2014-023B,2026-05-29T00:25:15.238272,1.00273226,.0000527,0.0513,83.5459,24.0504,203.7831,0,U,39728,999,4226,0,.7E-6,0
KAZEOSAT 1,2014-024A,2026-05-29T05:14:30.659424,14.42070607,.0001543,98.3213,222.1366,82.8893,277.2472,0,U,39731,999,63582,.17482E-4,.15E-6,0
NAVSTAR 70 (USA 251),2014-026A,2026-05-28T12:24:12.106656,2.00562586,.0038377,56.5078,332.2830,326.8774,32.8917,0,U,39741,999,8814,0,-.91E-6,0
COSMOS 2496 (RODNIK-S 10),2014-028A,2026-05-29T04:28:32.962368,12.42877885,.0021017,82.4424,120.6315,118.2129,242.1076,0,U,39761,999,54515,-.44985E-4,.4E-7,0
COSMOS 2497 (RODNIK-S 11),2014-028B,2026-05-29T03:53:18.045888,12.42893259,.0021626,82.4472,122.3294,113.5026,246.8329,0,U,39762,999,54515,-.4238E-3,-.49E-6,0
COSMOS 2498 (RODNIK-S 12),2014-028C,2026-05-29T05:18:51.051744,12.42979572,.0022356,82.4433,120.7875,113.1406,247.2032,0,U,39763,999,54519,-.15411E-3,-.11E-6,0
ALOS-2,2014-029A,2026-05-29T04:50:50.404128,14.79469273,.0001632,97.9206,246.6380,91.6206,268.5193,0,U,39766,999,64877,.22559E-4,.117E-5,0
UNIFORM 1,2014-029B,2026-05-29T05:08:58.899840,14.95758672,.0005426,97.8045,246.6687,30.4487,329.7048,0,U,39767,999,65138,.32201E-3,.3532E-4,0
SOCRATES,2014-029C,2026-05-28T21:21:48.464064,14.94706052,.0007075,97.9056,262.2014,52.3922,307.7939,0,U,39768,999,65152,.17976E-3,.1892E-4,0
RISING 2,2014-029D,2026-05-29T04:18:42.877152,14.98312552,.000313,97.6525,218.0506,20.3498,339.7849,0,U,39769,999,65070,.61724E-3,.7293E-4,0
EUTELSAT 3B,2014-030A,2026-05-29T01:52:06.659040,1.00270699,.0004161,0.0657,333.7620,95.6007,208.3833,0,U,39773,999,4387,0,.3E-6,0
COSMOS 2500 [GLONASS-M],2014-032A,2026-05-28T07:55:12.793152,2.13105999,.0006729,65.2446,314.3585,181.3542,178.6341,0,U,40001,999,9303,0,-.66E-6,0
KAZEOSAT 2,2014-033A,2026-05-29T04:00:22.747680,14.85443080,.0009437,97.5420,349.7837,30.7781,329.3987,0,U,40010,999,64613,.75634E-4,.602E-5,0
HODOYOSHI-4,2014-033B,2026-05-29T03:20:40.117344,14.88078320,.0024012,97.5452,334.8828,12.6287,347.5527,0,U,40011,999,64597,.21267E-3,.1913E-4,0
UNISAT-6,2014-033C,2026-05-28T23:17:49.228224,14.88119194,.0046305,97.7852,302.0255,130.8498,229.6747,0,U,40012,999,64330,.50422E-3,.4679E-4,0
DEIMOS-2,2014-033D,2026-05-29T05:24:09.664704,14.93667335,.0002409,97.5866,24.3791,63.9958,296.1511,0,U,40013,999,63489,.16252E-3,.1663E-4,0
BUGSAT-1 (TITA),2014-033E,2026-05-29T05:14:33.787104,15.15353410,.0026924,98.0421,240.6617,244.1675,115.6779,0,U,40014,999,65296,.4018E-3,.7572E-4,0
HODOYOSHI-3,2014-033F,2026-05-28T23:39:58.322016,14.85342812,.0034147,97.6401,312.8024,59.3608,301.0967,0,U,40015,999,64477,.13578E-3,.1127E-4,0
SAUDISAT 4,2014-033G,2026-05-28T21:53:01.157280,14.79512225,.0045869,97.7557,295.7165,134.8815,225.6136,0,U,40016,999,64322,.12673E-3,.912E-5,0
APRIZESAT 9,2014-033J,2026-05-28T20:43:08.454720,14.74186526,.0064772,97.9034,282.5371,262.2495,97.1356,0,U,40018,999,64071,.10455E-3,.66E-5,0
APRIZESAT 10,2014-033K,2026-05-28T14:27:59.030784,14.70863457,.0078224,97.9623,276.0021,337.2616,22.5133,0,U,40019,999,63937,.79592E-4,.457E-5,0
BRITE-CA1 (TORONTO),2014-033L,2026-05-29T03:34:43.650912,14.72647100,.0078063,97.9713,278.4310,338.8208,20.9773,0,U,40020,999,63941,.12428E-3,.776E-5,0
DUCHIFAT-1,2014-033M,2026-05-28T16:22:59.252736,15.60561627,.0005711,98.0488,205.1642,150.6869,209.4708,0,U,40021,999,65270,.13057E-2,.108977E-2,0
NANOSATC-BR1,2014-033Q,2026-05-29T01:22:21.093312,15.30767191,.000234,98.0735,179.7589,223.8498,136.2555,0,U,40024,999,65105,.72936E-3,.21643E-3,0
QB50P1,2014-033R,2026-05-28T23:15:58.627584,15.17922306,.0007076,98.0965,158.7725,296.0916,63.9588,0,U,40025,999,65011,.56585E-3,.11419E-3,0
DTUSAT-2,2014-033W,2026-05-29T05:09:13.603392,15.14736821,.0006386,98.0856,145.7417,307.1866,52.8781,0,U,40030,999,64981,.52386E-3,.9645E-4,0
QB50P2,2014-033Y,2026-05-29T05:03:30.280032,15.14880131,.0006109,98.0742,144.9142,231.6809,128.3873,0,U,40032,999,64979,.52374E-3,.9682E-4,0
PERSEUS-M2,2014-033AD,2026-05-29T03:04:03.593568,14.95439794,.0012058,97.9945,99.2825,9.3375,350.8067,0,U,40037,999,64793,.17746E-3,.1903E-4,0
PERSEUS-M1,2014-033AF,2026-05-28T20:01:58.977696,14.95555908,.0011781,97.9634,92.6510,8.7542,351.3882,0,U,40039,999,64774,.1791E-3,.1928E-4,0
POLYITAN-1,2014-033AJ,2026-05-29T01:21:34.216128,15.32505575,.0006826,98.0955,173.5182,200.5010,159.5957,0,U,40042,999,65066,.76151E-3,.23879E-3,0
TIGRISAT,2014-033AK,2026-05-28T23:32:44.783232,14.85069853,.0050401,97.7803,299.4368,136.5851,223.9350,0,U,40043,999,64277,.35297E-3,.303E-4,0
LEMUR-1,2014-033AL,2026-05-28T22:59:40.545024,14.85151077,.0049395,97.7851,299.1948,140.1058,220.3804,0,U,40044,999,64261,.38481E-3,.3312E-4,0
AEROCUBE 6A,2014-033AM,2026-05-29T01:16:34.022784,14.97864791,.0039349,97.7203,316.2115,80.1098,280.4562,0,U,40045,999,64375,.67132E-3,.797E-4,0
AEROCUBE 6B,2014-033AN,2026-05-29T00:10:36.646176,14.99306616,.0039244,97.7185,315.9135,73.1976,287.3546,0,U,40046,999,64388,.73784E-3,.9103E-4,0
SPOT 7,2014-034A,2026-05-29T03:23:47.042016,14.60938507,.0001199,98.0641,212.1229,84.6871,275.4467,0,U,40053,999,63435,.9082E-4,.399E-5,0
CANX-4,2014-034C,2026-05-29T04:04:44.787648,14.81223888,.0014083,98.3148,23.7831,73.8170,286.4590,0,U,40055,999,64171,.15058E-3,.1117E-4,0
CANX-5,2014-034D,2026-05-29T02:25:31.952064,14.81240836,.0014105,98.3150,23.7541,74.2504,286.0262,0,U,40056,999,63251,.1511E-3,.1122E-4,0
OCO 2,2014-035A,2026-05-29T03:12:49.343616,14.57092770,.0001441,98.2013,90.7182,88.1931,271.9433,0,U,40059,999,63327,.11309E-3,.464E-5,0
GONETS-M 8,2014-036A,2026-05-29T05:05:28.072608,12.42985113,.0029827,82.5095,319.3721,188.7291,171.3274,0,U,40061,999,54009,.36259E-3,.6E-6,0
GONETS-M 9,2014-036B,2026-05-29T04:08:05.454240,12.42949904,.002295,82.5093,319.4750,194.8417,165.1991,0,U,40062,999,54009,-.83677E-3,-.106E-5,0
GONETS-M 10,2014-036C,2026-05-29T03:42:27.736416,12.42944962,.0021879,82.5097,319.4997,181.2291,178.8739,0,U,40063,999,53988,-.39035E-3,-.44E-6,0
METEOR-M 2,2014-037A,2026-05-29T05:03:19.581120,14.21455766,.000702,98.5097,125.6222,90.4604,269.7379,0,U,40069,999,61662,.15712E-3,.302E-5,0
DX1,2014-037C,2026-05-29T03:42:37.041696,14.89917145,.0006835,98.3847,109.7039,345.6141,14.4879,0,U,40071,999,64327,.28347E-3,.2666E-4,0
SKYSAT-B,2014-037D,2026-05-28T21:26:03.033024,14.87969353,.0005397,98.3827,106.7604,355.5744,4.5422,0,U,40072,999,64309,.18716E-3,.1655E-4,0
UKUBE-1,2014-037F,2026-05-28T23:51:33.219072,15.13198542,.0001259,98.4235,150.2551,149.2425,210.8878,0,U,40074,999,64565,.65045E-3,.1148E-3,0
TECHDEMOSAT-1 (TDS-1),2014-037H,2026-05-28T23:32:57.143616,15.12956372,.0005705,98.3805,139.2962,349.4710,10.6398,0,U,40076,999,64532,.68734E-3,.12059E-3,0
O3B FM3,2014-038A,2026-05-28T21:59:31.559136,5.00115708,.0001954,0.0492,354.4765,133.7181,231.8239,0,U,40079,999,21208,0,-.22E-6,0
O3B FM7,2014-038B,2026-05-27T06:19:10.810848,5.00115734,.0004058,0.0500,345.7472,53.5341,320.7484,0,U,40080,999,21683,0,-.23E-6,0
O3B FM6,2014-038C,2026-05-28T21:20:46.959360,5.00115755,.0002623,0.0488,351.1069,74.4685,294.4529,0,U,40081,999,21686,0,-.22E-6,0
O3B FM8,2014-038D,2026-05-28T08:13:57.615744,5.00116064,.0002739,0.0490,350.0004,79.1721,290.8576,0,U,40082,999,21695,0,-.22E-6,0
ORBCOMM FM109,2014-040A,2026-05-29T03:03:02.312640,14.58819912,.0001123,47.0016,181.6003,183.9366,176.1511,0,U,40086,999,63156,.11577E-3,.376E-5,0
NAVSTAR 71 (USA 256),2014-045A,2026-05-28T02:37:55.577856,2.00557143,.0032542,55.3408,89.2645,118.4993,241.7938,0,U,40105,999,8567,0,-.41E-6,0
ASIASAT 8 (AMOS-7),2014-046A,2026-05-29T00:38:36.458304,1.00271588,.0001583,0.0463,106.4786,316.3725,298.6908,0,U,40107,999,10195,0,-.323E-5,0
YAOGAN-20 01A,2014-047A,2026-05-29T04:26:24.057888,13.45440510,.0388567,63.3795,68.1400,14.5739,346.6121,0,U,40109,999,57988,.17186E-3,.7E-6,0
YAOGAN-20 01B,2014-047B,2026-05-29T04:28:45.996672,13.45438507,.0388401,63.3795,69.0135,14.5971,346.5902,0,U,40110,999,57972,.16925E-3,.68E-6,0
YAOGAN-20 01C,2014-047C,2026-05-29T04:15:22.288320,13.45448591,.0388463,63.3787,68.7195,14.9864,346.2295,0,U,40111,999,57973,.1101E-3,.12E-6,0
WORLDVIEW-3 (WV-3),2014-048A,2026-05-29T03:58:54.148800,14.84985253,.0002272,97.8568,224.2614,55.8201,304.3229,0,U,40115,999,63908,.12171E-3,.984E-5,0
GAOFEN-2,2014-049A,2026-05-29T04:33:11.223936,14.80873564,.0006106,98.0121,213.4141,301.2443,58.8170,0,U,40118,999,63642,.37497E-4,.236E-5,0
BRITE-PL2 (HEWELIUSZ),2014-049B,2026-05-29T05:24:23.700384,14.94511398,.0014313,97.9076,261.0823,167.7022,192.4550,0,U,40119,999,63861,.19874E-3,.209E-4,0
GSAT0201 (GALILEO 5),2014-050A,2026-05-25T18:42:30.308544,1.85520002,.16712172,48.9004,274.3545,178.5208,182.0639,0,U,40128,999,7790,0,-.101E-5,0
GSAT0202 (GALILEO 6),2014-050B,2026-05-28T04:35:08.955168,1.85520640,.1672692,48.9146,273.3410,179.3408,180.9361,0,U,40129,999,8011,0,-.94E-6,0
